[{"OBJECT_NAME":"OBJECT AL","OBJECT_ID":"2023-085AL","EPOCH":"2026-03-09T22:26:04.970400","MEAN_MOTION":15.31857284,"ECCENTRICITY":0.000802,"INCLINATION":97.4839,"RA_OF_ASC_NODE":180.0127,"ARG_OF_PERICENTER":78.7242,"MEAN_ANOMALY":281.49,"EPHEMERIS_TYPE":0,"CLASSIFICATION_TYPE":"U","NORAD_CAT_ID":57038,"ELEMENT_SET_NO":999,"REV_AT_EPOCH":15154,"BSTAR":0.0006591637,"MEAN_MOTION_DOT":0.00020246,"MEAN_MOTION_DDOT":0},{"OBJECT_NAME":"STARLINK-34475","OBJECT_ID":"2025-137K","EPOCH":"2026-03-09T22:43:40.464768","MEAN_MOTION":15.30214064,"ECCENTRICITY":0.00010066,"INCLINATION":53.1596,"RA_OF_ASC_NODE":334.0867,"ARG_OF_PERICENTER":128.107,"MEAN_ANOMALY":232.0022,"EPHEMERIS_TYPE":0,"CLASSIFICATION_TYPE":"U","NORAD_CAT_ID":64603,"ELEMENT_SET_NO":999,"REV_AT_EPOCH":4077,"BSTAR":0.00093453443,"MEAN_MOTION_DOT":0.00027433,"MEAN_MOTION_DDOT":0}]
